{"type": "FeatureCollection", "features": [ {"type": "Feature", "properties": {"norad_id": 51444, "name": "CSG-2", "group": "resource", "lat": 31.517691260677484, "lon": 160.35293911923412, "alt_km": 620.1289043221432, "timestamp": "2025-12-09T20:37:08.939549+00:00", "meta": {"OBJECT_NAME": "CSG-2", "OBJECT_ID": "2022-008A", "EPOCH": "2025-12-09T13:59:41.667360", "MEAN_MOTION": 14.82156888, "ECCENTRICITY": 0.00014714, "INCLINATION": 97.8802, "RA_OF_ASC_NODE": 164.9534, "ARG_OF_PERICENTER": 83.6837, "MEAN_ANOMALY": 276.4544, "EPHEMERIS_TYPE": 0, "CLASSIFICATION_TYPE": "U", "NORAD_CAT_ID": 51444, "ELEMENT_SET_NO": 999, "REV_AT_EPOCH": 20850, "BSTAR": 4.8544349e-05, "MEAN_MOTION_DOT": 3.34e-06, "MEAN_MOTION_DDOT": 0}, "tle": {"line1": "1 51444U 22008A   25343.58312115  .00000334  00000+0  48544-4 0  9991", "line2": "2 51444  97.8802 164.9534 0001471  83.6837 276.4544 14.82156888208502"}}, "geometry": {"type": "Point", "coordinates": [160.35293911923412, 31.517691260677484]}}, {"type": "Feature", "properties": {"norad_id": 52912, "name": "GAOFEN-12 03", "group": "resource", "lat": -24.88861906567771, "lon": -125.05669761430308, "alt_km": 636.2354637117496, "timestamp": "2025-12-09T20:37:08.939559+00:00", "meta": {"OBJECT_NAME": "GAOFEN-12 03", "OBJECT_ID": "2022-069A", "EPOCH": "2025-12-09T15:51:48.106944", "MEAN_MOTION": 14.79598313, "ECCENTRICITY": 0.00022585, "INCLINATION": 97.8481, "RA_OF_ASC_NODE": 231.0808, "ARG_OF_PERICENTER": 66.6986, "MEAN_ANOMALY": 293.4463, "EPHEMERIS_TYPE": 0, "CLASSIFICATION_TYPE": "U", "NORAD_CAT_ID": 52912, "ELEMENT_SET_NO": 999, "REV_AT_EPOCH": 18658, "BSTAR": 0.00027392268, "MEAN_MOTION_DOT": 2.002e-05, "MEAN_MOTION_DDOT": 0}, "tle": {"line1": "1 52912U 22069A   25343.66097346  .00002002  00000+0  27392-3 0  9995", "line2": "2 52912  97.8481 231.0808 0002258  66.6986 293.4463 14.79598313186587"}}, "geometry": {"type": "Point", "coordinates": [-125.05669761430308, -24.88861906567771]}}, {"type": "Feature", "properties": {"norad_id": 54754, "name": "SWOT", "group": "resource", "lat": 50.18521352295356, "lon": -53.832606196469044, "alt_km": 888.3226539655261, "timestamp": "2025-12-09T20:37:08.939569+00:00", "meta": {"OBJECT_NAME": "SWOT", "OBJECT_ID": "2022-173A", "EPOCH": "2025-12-09T13:30:45.991584", "MEAN_MOTION": 14.00174006, "ECCENTRICITY": 3.33e-05, "INCLINATION": 77.6104, "RA_OF_ASC_NODE": 291.278, "ARG_OF_PERICENTER": 121.6166, "MEAN_ANOMALY": 238.5019, "EPHEMERIS_TYPE": 0, "CLASSIFICATION_TYPE": "U", "NORAD_CAT_ID": 54754, "ELEMENT_SET_NO": 999, "REV_AT_EPOCH": 15261, "BSTAR": 6.4814123e-05, "MEAN_MOTION_DOT": 9.3e-07, "MEAN_MOTION_DDOT": 0}, "tle": {"line1": "1 54754U 22173A   25343.56303231  .00000093  00000+0  64814-4 0  9998", "line2": "2 54754  77.6104 291.2780 0000333 121.6166 238.5019 14.00174006152619"}}, "geometry": {"type": "Point", "coordinates": [-53.832606196469044, 50.18521352295356]}}, {"type": "Feature", "properties": {"norad_id": 57654, "name": "GAOFEN-12 04", "group": "resource", "lat": 35.84739341682605, "lon": 85.42631876099391, "alt_km": 627.5857743688221, "timestamp": "2025-12-09T20:37:08.939579+00:00", "meta": {"OBJECT_NAME": "GAOFEN-12 04", "OBJECT_ID": "2023-123A", "EPOCH": "2025-12-09T15:06:11.941632", "MEAN_MOTION": 14.79686329, "ECCENTRICITY": 0.00013607, "INCLINATION": 97.9118, "RA_OF_ASC_NODE": 259.4337, "ARG_OF_PERICENTER": 72.0438, "MEAN_ANOMALY": 288.0922, "EPHEMERIS_TYPE": 0, "CLASSIFICATION_TYPE": "U", "NORAD_CAT_ID": 57654, "ELEMENT_SET_NO": 999, "REV_AT_EPOCH": 12459, "BSTAR": 0.0003271497, "MEAN_MOTION_DOT": 2.405e-05, "MEAN_MOTION_DDOT": 0}, "tle": {"line1": "1 57654U 23123A   25343.62930488  .00002405  00000+0  32715-3 0  9996", "line2": "2 57654  97.9118 259.4337 0001360  72.0438 288.0922 14.79686329124598"}}, "geometry": {"type": "Point", "coordinates": [85.42631876099391, 35.84739341682605]}}, {"type": "Feature", "properties": {"norad_id": 59065, "name": "PARS 1", "group": "resource", "lat": -81.68905550004453, "lon": 70.90273593655311, "alt_km": 459.5203142133778, "timestamp": "2025-12-09T20:37:08.939589+00:00", "meta": {"OBJECT_NAME": "PARS 1", "OBJECT_ID": "2024-039Q", "EPOCH": "2025-12-09T14:47:29.224608", "MEAN_MOTION": 15.40863982, "ECCENTRICITY": 0.00126911, "INCLINATION": 97.4638, "RA_OF_ASC_NODE": 314.4832, "ARG_OF_PERICENTER": 81.5852, "MEAN_ANOMALY": 278.6832, "EPHEMERIS_TYPE": 0, "CLASSIFICATION_TYPE": "U", "NORAD_CAT_ID": 59065, "ELEMENT_SET_NO": 999, "REV_AT_EPOCH": 9940, "BSTAR": 0.00038034268, "MEAN_MOTION_DOT": 0.00015581, "MEAN_MOTION_DDOT": 0}, "tle": {"line1": "1 59065U 24039Q   25343.61631047  .00015581  00000+0  38034-3 0  9998", "line2": "2 59065  97.4638 314.4832 0012691  81.5852 278.6832 15.40863982 99401"}}, "geometry": {"type": "Point", "coordinates": [70.90273593655311, -81.68905550004453]}}, {"type": "Feature", "properties": {"norad_id": 59371, "name": "RESURS-P 4", "group": "resource", "lat": 39.33372368469746, "lon": 116.24000058576469, "alt_km": 466.7361994139719, "timestamp": "2025-12-09T20:37:08.939599+00:00", "meta": {"OBJECT_NAME": "RESURS-P 4", "OBJECT_ID": "2024-061A", "EPOCH": "2025-12-09T15:18:24.306048", "MEAN_MOTION": 15.32047343, "ECCENTRICITY": 0.00017431, "INCLINATION": 97.2544, "RA_OF_ASC_NODE": 290.0313, "ARG_OF_PERICENTER": 52.9128, "MEAN_ANOMALY": 307.2273, "EPHEMERIS_TYPE": 0, "CLASSIFICATION_TYPE": "U", "NORAD_CAT_ID": 59371, "ELEMENT_SET_NO": 999, "REV_AT_EPOCH": 9473, "BSTAR": 0.00019595523, "MEAN_MOTION_DOT": 5.987e-05, "MEAN_MOTION_DDOT": 0}, "tle": {"line1": "1 59371U 24061A   25343.63778132  .00005987  00000+0  19596-3 0  9993", "line2": "2 59371  97.2544 290.0313 0001743  52.9128 307.2273 15.32047343 94737"}}, "geometry": {"type": "Point", "coordinates": [116.24000058576469, 39.33372368469746]}}, {"type": "Feature", "properties": {"norad_id": 59625, "name": "LEGION 1", "group": "resource", "lat": 13.014575361496345, "lon": -119.7281317494803, "alt_km": 520.657228686412, "timestamp": "2025-12-09T20:37:08.939609+00:00", "meta": {"OBJECT_NAME": "LEGION 1", "OBJECT_ID": "2024-081A", "EPOCH": "2025-12-09T15:08:05.876448", "MEAN_MOTION": 15.16431377, "ECCENTRICITY": 0.0004233, "INCLINATION": 97.5211, "RA_OF_ASC_NODE": 58.2954, "ARG_OF_PERICENTER": 330.8327, "MEAN_ANOMALY": 29.2669, "EPHEMERIS_TYPE": 0, "CLASSIFICATION_TYPE": "U", "NORAD_CAT_ID": 59625, "ELEMENT_SET_NO": 999, "REV_AT_EPOCH": 8880, "BSTAR": 0.00041047203, "MEAN_MOTION_DOT": 7.918e-05, "MEAN_MOTION_DDOT": 0}, "tle": {"line1": "1 59625U 24081A   25343.63062357  .00007918  00000+0  41047-3 0  9994", "line2": "2 59625  97.5211  58.2954 0004233 330.8327  29.2669 15.16431377 88801"}}, "geometry": {"type": "Point", "coordinates": [-119.7281317494803, 13.014575361496345]}}, {"type": "Feature", "properties": {"norad_id": 59626, "name": "LEGION 2", "group": "resource", "lat": -13.547238573792757, "lon": 60.43346367222003, "alt_km": 518.1784817678281, "timestamp": "2025-12-09T20:37:08.939619+00:00", "meta": {"OBJECT_NAME": "LEGION 2", "OBJECT_ID": "2024-081B", "EPOCH": "2025-12-09T14:20:40.600896", "MEAN_MOTION": 15.16443135, "ECCENTRICITY": 0.00058265, "INCLINATION": 97.5215, "RA_OF_ASC_NODE": 58.3499, "ARG_OF_PERICENTER": 307.1855, "MEAN_ANOMALY": 52.8846, "EPHEMERIS_TYPE": 0, "CLASSIFICATION_TYPE": "U", "NORAD_CAT_ID": 59626, "ELEMENT_SET_NO": 999, "REV_AT_EPOCH": 8880, "BSTAR": 0.00036875342, "MEAN_MOTION_DOT": 7.109e-05, "MEAN_MOTION_DDOT": 0}, "tle": {"line1": "1 59626U 24081B   25343.59769214  .00007109  00000+0  36875-3 0  9991", "line2": "2 59626  97.5215  58.3499 0005826 307.1855  52.8846 15.16443135 88807"}}, "geometry": {"type": "Point", "coordinates": [60.43346367222003, -13.547238573792757]}}, {"type": "Feature", "properties": {"norad_id": 60182, "name": "ALOS-4 (DAICHI-4)", "group": "resource", "lat": 26.198466855634134, "lon": 74.81833716224325, "alt_km": 629.8267431960685, "timestamp": "2025-12-09T20:37:08.939630+00:00", "meta": {"OBJECT_NAME": "ALOS-4 (DAICHI-4)", "OBJECT_ID": "2024-123A", "EPOCH": "2025-12-09T14:00:25.667424", "MEAN_MOTION": 14.79471635, "ECCENTRICITY": 0.00014382, "INCLINATION": 97.9226, "RA_OF_ASC_NODE": 78.4757, "ARG_OF_PERICENTER": 102.2084, "MEAN_ANOMALY": 257.9289, "EPHEMERIS_TYPE": 0, "CLASSIFICATION_TYPE": "U", "NORAD_CAT_ID": 60182, "ELEMENT_SET_NO": 999, "REV_AT_EPOCH": 7784, "BSTAR": 0.00049080416, "MEAN_MOTION_DOT": 3.616e-05, "MEAN_MOTION_DDOT": 0}, "tle": {"line1": "1 60182U 24123A   25343.58363041  .00003616  00000+0  49080-3 0  9995", "line2": "2 60182  97.9226  78.4757 0001438 102.2084 257.9289 14.79471635 77840"}}, "geometry": {"type": "Point", "coordinates": [74.81833716224325, 26.198466855634134]}}, {"type": "Feature", "properties": {"norad_id": 60452, "name": "LEGION 3", "group": "resource", "lat": 11.154427680856184, "lon": -23.04702146377703, "alt_km": 527.0029483452472, "timestamp": "2025-12-09T20:37:08.939640+00:00", "meta": {"OBJECT_NAME": "LEGION 3", "OBJECT_ID": "2024-146A", "EPOCH": "2025-12-09T11:03:30.979008", "MEAN_MOTION": 15.15708093, "ECCENTRICITY": 0.00145185, "INCLINATION": 45.0025, "RA_OF_ASC_NODE": 327.7103, "ARG_OF_PERICENTER": 180.8682, "MEAN_ANOMALY": 179.2173, "EPHEMERIS_TYPE": 0, "CLASSIFICATION_TYPE": "U", "NORAD_CAT_ID": 60452, "ELEMENT_SET_NO": 999, "REV_AT_EPOCH": 7323, "BSTAR": 0.00041992573, "MEAN_MOTION_DOT": 7.898e-05, "MEAN_MOTION_DDOT": 0}, "tle": {"line1": "1 60452U 24146A   25343.46077522  .00007898  00000+0  41993-3 0  9994", "line2": "2 60452  45.0025 327.7103 0014518 180.8682 179.2173 15.15708093 73234"}}, "geometry": {"type": "Point", "coordinates": [-23.04702146377703, 11.154427680856184]}}]}